$$SOE
2461323.500000000, A.D. 2026-Oct-10 00:00:00.0000, 4.190331392631337E+09, 5.008711369780293E+09, 4.932296896461716E+08,
2461330.500000000, A.D. 2026-Oct-17 00:00:00.0000, 4.188127867950039E+09, 5.010393567063874E+09, 4.933857718771362E+08,
2461337.500000000, A.D. 2026-Oct-24 00:00:00.0000, 4.185923643600485E+09, 5.012074836470425E+09, 4.935417688400104E+08,
2461344.500000000, A.D. 2026-Oct-31 00:00:00.0000, 4.183718720676269E+09, 5.013755174902146E+09, 4.936976804409318E+08,
2461351.500000000, A.D. 2026-Nov-07 00:00:00.0000, 4.181513101070384E+09, 5.015434578631399E+09, 4.938535064646671E+08,
2461358.500000000, A.D. 2026-Nov-14 00:00:00.0000, 4.179306788557016E+09, 5.017113043821178E+09, 4.940092465108516E+08,
2461365.500000000, A.D. 2026-Nov-21 00:00:00.0000, 4.177099788689756E+09, 5.018790568526250E+09, 4.941649001597464E+08,
2461372.500000000, A.D. 2026-Nov-28 00:00:00.0000, 4.174892106518102E+09, 5.020467153166890E+09, 4.943204672134662E+08,
2461379.500000000, A.D. 2026-Dec-05 00:00:00.0000, 4.172683745741830E+09, 5.022142798818899E+09, 4.944759476273856E+08,
2461386.500000000, A.D. 2026-Dec-12 00:00:00.0000, 4.170474709468114E+09, 5.023817506430866E+09, 4.946313413710942E+08,
2461393.500000000, A.D. 2026-Dec-19 00:00:00.0000, 4.168265000684168E+09, 5.025491276975117E+09, 4.947866483927944E+08,
2461400.500000000, A.D. 2026-Dec-26 00:00:00.0000, 4.166054622302955E+09, 5.027164111664269E+09, 4.949418686294870E+08,
2461407.500000000, A.D. 2027-Jan-02 00:00:00.0000, 4.163843577057555E+09, 5.028836012042354E+09, 4.950970020222082E+08,
2461414.500000000, A.D. 2027-Jan-09 00:00:00.0000, 4.161631867360511E+09, 5.030506979970507E+09, 4.952520485273716E+08,
2461421.500000000, A.D. 2027-Jan-16 00:00:00.0000, 4.159419495162456E+09, 5.032177017515831E+09, 4.954070081217618E+08,
2461428.500000000, A.D. 2027-Jan-23 00:00:00.0000, 4.157206461854576E+09, 5.033846126703591E+09, 4.955618807937541E+08,
2461435.500000000, A.D. 2027-Jan-30 00:00:00.0000, 4.154992768401073E+09, 5.035514309084781E+09, 4.957166664995954E+08,
2461442.500000000, A.D. 2027-Feb-06 00:00:00.0000, 4.152778416124679E+09, 5.037181565458918E+09, 4.958713650734880E+08,
2461449.500000000, A.D. 2027-Feb-13 00:00:00.0000, 4.150563407683368E+09, 5.038847896971633E+09, 4.960259762332509E+08,
2461456.500000000, A.D. 2027-Feb-20 00:00:00.0000, 4.148347745873073E+09, 5.040513306795956E+09, 4.961804998335316E+08,
2461463.500000000, A.D. 2027-Feb-27 00:00:00.0000, 4.146131431651353E+09, 5.042177799183554E+09, 4.963349359757223E+08,
2461470.500000000, A.D. 2027-Mar-06 00:00:00.0000, 4.143914464399540E+09, 5.043841377808524E+09, 4.964892848546731E+08,
2461477.500000000, A.D. 2027-Mar-13 00:00:00.0000, 4.141696842822794E+09, 5.045504045453155E+09, 4.966435466562779E+08,
2461484.500000000, A.D. 2027-Mar-20 00:00:00.0000, 4.139478565358521E+09, 5.047165804201031E+09, 4.967977215411236E+08,
2461491.500000000, A.D. 2027-Mar-27 00:00:00.0000, 4.137259630295113E+09, 5.048826655588547E+09, 4.969518096506677E+08,
2461498.500000000, A.D. 2027-Apr-03 00:00:00.0000, 4.135040035803908E+09, 5.050486600667070E+09, 4.971058111133325E+08,
2461505.500000000, A.D. 2027-Apr-10 00:00:00.0000, 4.132819779945610E+09, 5.052145639998847E+09, 4.972597260467119E+08,
2461512.500000000, A.D. 2027-Apr-17 00:00:00.0000, 4.130598860673258E+09, 5.053803773572305E+09, 4.974135545526390E+08,
2461519.500000000, A.D. 2027-Apr-24 00:00:00.0000, 4.128377275910924E+09, 5.055461000574621E+09, 4.975672966927547E+08,
2461526.500000000, A.D. 2027-May-01 00:00:00.0000, 4.126155024007823E+09, 5.057117319049358E+09, 4.977209524193537E+08,
2461533.500000000, A.D. 2027-May-08 00:00:00.0000, 4.123932104875174E+09, 5.058772726187550E+09, 4.978745214944975E+08,
2461540.500000000, A.D. 2027-May-15 00:00:00.0000, 4.121708520308990E+09, 5.060427220205684E+09, 4.980280036126084E+08,
2461547.500000000, A.D. 2027-May-22 00:00:00.0000, 4.119484271934897E+09, 5.062080801218981E+09, 4.981813986582315E+08,
2461554.500000000, A.D. 2027-May-29 00:00:00.0000, 4.117259360130932E+09, 5.063733469641705E+09, 4.983347066712191E+08,
2461561.500000000, A.D. 2027-Jun-05 00:00:00.0000, 4.115033784813136E+09, 5.065385225246249E+09, 4.984879276942425E+08,
2461568.500000000, A.D. 2027-Jun-12 00:00:00.0000, 4.112807546076445E+09, 5.067036067312817E+09, 4.986410617221384E+08,
2461575.500000000, A.D. 2027-Jun-19 00:00:00.0000, 4.110580644359825E+09, 5.068685994934658E+09, 4.987941087071757E+08,
2461582.500000000, A.D. 2027-Jun-26 00:00:00.0000, 4.108353080415088E+09, 5.070335007217566E+09, 4.989470685734491E+08,
2461589.500000000, A.D. 2027-Jul-03 00:00:00.0000, 4.106124855211511E+09, 5.071983103381922E+09, 4.990999412291834E+08,
2461596.500000000, A.D. 2027-Jul-10 00:00:00.0000, 4.103895969813103E+09, 5.073630282776011E+09, 4.992527265745001E+08,
2461603.500000000, A.D. 2027-Jul-17 00:00:00.0000, 4.101666425264866E+09, 5.075276544761758E+09, 4.994054244983926E+08,
2461610.500000000, A.D. 2027-Jul-24 00:00:00.0000, 4.099436222644469E+09, 5.076921888410067E+09, 4.995580348456914E+08,
2461617.500000000, A.D. 2027-Jul-31 00:00:00.0000, 4.097205363690789E+09, 5.078566312241284E+09, 4.997105573357408E+08,
2461624.500000000, A.D. 2027-Aug-07 00:00:00.0000, 4.094973851808565E+09, 5.080209815162512E+09, 4.998629915455079E+08,
2461631.500000000, A.D. 2027-Aug-14 00:00:00.0000, 4.092741691148077E+09, 5.081852398348456E+09, 5.000153371475856E+08,
2461638.500000000, A.D. 2027-Aug-21 00:00:00.0000, 4.090508884378043E+09, 5.083494064701639E+09, 5.001675940714815E+08,
2461645.500000000, A.D. 2027-Aug-28 00:00:00.0000, 4.088275432582808E+09, 5.085134817095174E+09, 5.003197623718305E+08,
2461652.500000000, A.D. 2027-Sep-04 00:00:00.0000, 4.086041336102683E+09, 5.086774657900436E+09, 5.004718421162107E+08,
2461659.500000000, A.D. 2027-Sep-11 00:00:00.0000, 4.083806594922108E+09, 5.088413589138296E+09, 5.006238333663187E+08,
2461666.500000000, A.D. 2027-Sep-18 00:00:00.0000, 4.081571208738835E+09, 5.090051612603859E+09, 5.007757361868801E+08,
2461673.500000000, A.D. 2027-Sep-25 00:00:00.0000, 4.079335176942977E+09, 5.091688729887312E+09, 5.009275506547310E+08,
2461680.500000000, A.D. 2027-Oct-02 00:00:00.0000, 4.077098498581008E+09, 5.093324942318770E+09, 5.010792768631411E+08,
2461687.500000000, A.D. 2027-Oct-09 00:00:00.0000, 4.074861172327216E+09, 5.094960250833020E+09, 5.012309149187191E+08,
2461694.500000000, A.D. 2027-Oct-16 00:00:00.0000, 4.072623196525882E+09, 5.096594655699686E+09, 5.013824649203875E+08,
2461701.500000000, A.D. 2027-Oct-23 00:00:00.0000, 4.070384569564195E+09, 5.098228156113555E+09, 5.015339268959363E+08,
2461708.500000000, A.D. 2027-Oct-30 00:00:00.0000, 4.068145290950741E+09, 5.099860750255702E+09, 5.016853007115307E+08,
2461715.500000000, A.D. 2027-Nov-06 00:00:00.0000, 4.065905361936253E+09, 5.101492436953861E+09, 5.018365861529667E+08,
2461722.500000000, A.D. 2027-Nov-13 00:00:00.0000, 4.063664783691263E+09, 5.103123216866057E+09, 5.019877831910243E+08,
2461729.500000000, A.D. 2027-Nov-20 00:00:00.0000, 4.061423555942565E+09, 5.104753091001781E+09, 5.021388919861372E+08,
2461736.500000000, A.D. 2027-Nov-27 00:00:00.0000, 4.059181677686100E+09, 5.106382059545317E+09, 5.022899127262976E+08,
2461743.500000000, A.D. 2027-Dec-04 00:00:00.0000, 4.056939147952709E+09, 5.108010121895187E+09, 5.024408455585084E+08,
2461750.500000000, A.D. 2027-Dec-11 00:00:00.0000, 4.054695966076207E+09, 5.109637276955880E+09, 5.025916905855675E+08,
2461757.500000000, A.D. 2027-Dec-18 00:00:00.0000, 4.052452131738733E+09, 5.111263523342807E+09, 5.027424478753226E+08,
2461764.500000000, A.D. 2027-Dec-25 00:00:00.0000, 4.050207644945386E+09, 5.112888859498468E+09, 5.028931174683659E+08,
2461771.500000000, A.D. 2028-Jan-01 00:00:00.0000, 4.047962505969552E+09, 5.114513283734495E+09, 5.030436993816693E+08,
$$EOE